{"RECORDS":[{"CCSDS_OMM_VERS":79580.02,"CREATION_DATE":"2051-11-07T22:55:11.680Z","ORIGINATOR":"Kilback - Hartmann","OBJECT_NAME":"NQp\"^LAZ7X","OBJECT_ID":"H(U|.`\\6:t","CENTER_NAME":"s{:/U$`*T2","REF_FRAME":2,"REF_FRAME_EPOCH":"2055-01-26T03:04:52.762Z","TIME_SYSTEM":5,"MEAN_ELEMENT_THEORY":0,"COMMENT":"_+jr-#s2[>","EPOCH":"2098-09-12T02:03:33.786Z","SEMI_MAJOR_AXIS":69742.03,"MEAN_MOTION":59175.35,"ECCENTRICITY":47952.73,"INCLINATION":1876.41,"RA_OF_ASC_NODE":86320.1,"ARG_OF_PERICENTER":72677.8,"MEAN_ANOMALY":97292.64,"GM":18576.43,"MASS":49626.96,"SOLAR_RAD_AREA":75708.36,"SOLAR_RAD_COEFF":66528.91,"DRAG_AREA":53889.38,"DRAG_COEFF":22218.97,"EPHEMERIS_TYPE":1,"CLASSIFICATION_TYPE":"X}g$|;f9,*","NORAD_CAT_ID":4268982044,"ELEMENT_SET_NO":4005192378,"REV_AT_EPOCH":74757.99,"BSTAR":40206.29,"MEAN_MOTION_DOT":38044.31,"MEAN_MOTION_DDOT":65679.47,"COV_REF_FRAME":1,"CX_X":48463.04,"CY_X":67080.18,"CY_Y":4317.9,"CZ_X":86038.6,"CZ_Y":63079.39,"CZ_Z":7090.77,"CX_DOT_X":58430.23,"CX_DOT_Y":98560.51,"CX_DOT_Z":88366.26,"CX_DOT_X_DOT":69754.89,"CY_DOT_X":85120.22,"CY_DOT_Y":32853.53,"CY_DOT_Z":38941.35,"CY_DOT_X_DOT":60412.01,"CY_DOT_Y_DOT":97008.17,"CZ_DOT_X":95475.43,"CZ_DOT_Y":33898.5,"CZ_DOT_Z":75463.34,"CZ_DOT_X_DOT":30262.68,"CZ_DOT_Y_DOT":66506.5,"CZ_DOT_Z_DOT":42590.29,"USER_DEFINED_BIP_0044_TYPE":2815904071,"USER_DEFINED_OBJECT_DESIGNATOR":"]/nMw-*>(s","USER_DEFINED_EARTH_MODEL":"19c8R6}o`N","USER_DEFINED_EPOCH_TIMESTAMP":85188.5,"USER_DEFINED_MICROSECONDS":94362.43}]}